OBJECT_NAME,OBJECT_ID,EPOCH,MEAN_MOTION,ECCENTRICITY,INCLINATION,RA_OF_ASC_NODE,ARG_OF_PERICENTER,MEAN_ANOMALY,EPHEMERIS_TYPE,CLASSIFICATION_TYPE,NORAD_CAT_ID,ELEMENT_SET_NO,REV_AT_EPOCH,BSTAR,MEAN_MOTION_DOT,MEAN_MOTION_DDOT
TIANMU-1 20,2023-208B,2026-06-20T06:17:52.617984,15.32803097,.00057971,97.4449,288.2165,320.9535,39.1288,0,U,58661,999,13789,.21571486E-3,.6757E-4,0
TIANMU-1 21,2023-208C,2026-06-20T07:28:16.871232,15.35123220,.00058117,97.4508,290.9598,310.1894,49.8840,0,U,58662,999,13804,.22859043E-3,.7713E-4,0
TIANMU-1 22,2023-208D,2026-06-20T06:36:13.892256,15.31093930,.00029077,97.4503,287.5242,352.2695,7.8501,0,U,58663,999,13780,.21057089E-3,.6247E-4,0
TIANMU-1 15,2024-004A,2026-06-20T07:25:42.629952,15.27049715,.00063782,97.4672,357.5002,350.9622,9.1501,0,U,58700,999,13625,.17020424E-3,.4444E-4,0
TIANMU-1 16,2024-004B,2026-06-20T07:11:01.292064,15.26774706,.00054995,97.4620,356.7232,356.7950,3.3252,0,U,58701,999,13625,.17106468E-3,.4429E-4,0
TIANMU-1 17,2024-004C,2026-06-20T06:50:04.655040,15.26773747,.0005223,97.4648,357.1949,3.8961,356.2317,0,U,58702,999,13624,.17336953E-3,.4489E-4,0
TIANMU-1 18,2024-004D,2026-06-20T07:49:41.443104,15.27031187,.00037205,97.4665,357.4937,4.9154,355.2120,0,U,58703,999,13625,.17196358E-3,.4487E-4,0
INSAT-3DS,2024-033A,2026-06-20T02:56:51.374112,1.00271079,.00011569,0.0474,106.6794,330.7348,317.2316,0,U,58990,999,4709,0,-.161E-5,0
METEOR-M2 4,2024-039A,2026-06-20T06:41:00.926880,14.22429793,.00074629,98.7012,130.5377,152.4671,207.6903,0,U,59051,999,11970,.20680002E-4,.2E-7,0
GOES 19,2024-119A,2026-06-20T05:15:38.683872,1.00270585,.0000403,0.0016,116.5243,46.0898,109.5323,0,U,60133,999,699,0,-.253E-5,0
MTG-S1,2025-143A,2026-06-20T05:58:28.142112,1.00399656,.00008377,0.6005,339.6947,293.6415,82.1875,0,U,64723,999,345,0,-.6E-7,0
METOP-SGA1,2025-172A,2026-06-16T03:40:47.624736,14.21509720,.0000902,98.6644,226.8998,93.8213,266.3067,0,U,65159,999,4364,.41999845E-4,.49E-6,0
FENGYUN 3H,2025-219A,2026-06-20T06:46:48.210816,14.19920881,.00015734,98.6768,111.9915,74.5910,285.5440,0,U,65815,999,3782,.36501542E-4,.34E-6,0
