TIANMU-1 20             
1 58661U 23208B   26171.26241456  .00006757  00000+0  21571-3 0  9991
2 58661  97.4449 288.2165 0005797 320.9535  39.1288 15.32803097137899
TIANMU-1 21             
1 58662U 23208C   26171.31130638  .00007713  00000+0  22859-3 0  9990
2 58662  97.4508 290.9598 0005811 310.1894  49.8840 15.35123220138048
TIANMU-1 22             
1 58663U 23208D   26171.27516079  .00006247  00000+0  21057-3 0  9993
2 58663  97.4503 287.5242 0002907 352.2695   7.8501 15.31093930137802
TIANMU-1 15             
1 58700U 24004A   26171.30952118  .00004444  00000+0  17020-3 0  9994
2 58700  97.4672 357.5002 0006378 350.9622   9.1501 15.27049715136254
TIANMU-1 16             
1 58701U 24004B   26171.29932051  .00004429  00000+0  17106-3 0  9995
2 58701  97.4620 356.7232 0005499 356.7950   3.3252 15.26774706136258
TIANMU-1 17             
1 58702U 24004C   26171.28477610  .00004489  00000+0  17337-3 0  9992
2 58702  97.4648 357.1949 0005223   3.8961 356.2317 15.26773747136241
TIANMU-1 18             
1 58703U 24004D   26171.32617411  .00004487  00000+0  17196-3 0  9994
2 58703  97.4665 357.4937 0003720   4.9154 355.2120 15.27031187136255
INSAT-3DS               
1 58990U 24033A   26171.12281683 -.00000161  00000+0  00000+0 0  9998
2 58990   0.0474 106.6794 0001156 330.7348 317.2316  1.00271079 47092
METEOR-M2 4             
1 59051U 24039A   26171.27848295  .00000002  00000+0  20680-4 0  9991
2 59051  98.7012 130.5377 0007462 152.4671 207.6903 14.22429793119708
GOES 19                 
1 60133U 24119A   26171.21919773 -.00000253  00000+0  00000+0 0  9995
2 60133   0.0016 116.5243 0000403  46.0898 109.5323  1.00270585  6991
MTG-S1                  
1 64723U 25143A   26171.24893683 -.00000006  00000+0  00000+0 0  9992
2 64723   0.6005 339.6947 0000837 293.6415  82.1875  1.00399656  3456
METOP-SGA1              
1 65159U 25172A   26167.15332899  .00000049  00000+0  42000-4 0  9997
2 65159  98.6644 226.8998 0000902  93.8213 266.3067 14.21509720 43644
FENGYUN 3H              
1 65815U 25219A   26171.28250244  .00000034  00000+0  36502-4 0  9994
2 65815  98.6768 111.9915 0001573  74.5910 285.5440 14.19920881 37821
